[{"Name":"Machine","EmployeeId":106125,"Department":"IT",
    "Address":{"Street":"355 fort","State":"Maharashtra","Pincode":400070}},
    {"Name":"Jack","EmployeeId":505025,"Department":"Admin",
        "Address":{"Street":"3423 tort","State":"Gujarat","Pincode":34535345}},
        {"Name":"Candidate","EmployeeId":34564,"Department":"Manufacture",
            "Address":{"Street":"78 street","State":"MP","Pincode":78954}},
            {"Name":"Zillrtret","EmployeeId":5645656,"Department":"Accounts",
                "Address":{"Street":"355 fortwert","State":"Maharashtra","Pincode":40076967}},
                {"Name":"divss","EmployeeId":4656111,"Department":"Sales",
                    "Address":{"Street":"3/155 anbalayam","State":"Tamilnadu","Pincode":40078767}},
                    {"Name":"ara","EmployeeId":5612342,"Department":"Admin",
                        "Address":{"Street":"coimbatore","State":"Tamilnadu","Pincode":56776967}},
                        {"Name":"Sadhuus","EmployeeId":5948576,"Department":"Manufacture",
                            "Address":{"Street":"87 fortty","State":"Maharata","Pincode":40935267}},
                            {"Name":"karthiii","EmployeeId":5665437,"Department":"Accounts",
                                "Address":{"Street":"98 lame","State":"Kerala","Pincode":40876767}},
                                {"Name":"Nalina","EmployeeId":5611116,"Department":"Admin",
                                    "Address":{"Street":"12 Thayappa nagar","State":"Tamilnadu","Pincode":49876534}}]